NORAD_CAT_ID,OBJECT_NAME,OBJECT_TYPE,EPOCH,MEAN_MOTION,ECCENTRICITY,INCLINATION,RA_OF_ASC_NODE,ARG_OF_PERICENTER,MEAN_ANOMALY,BSTAR,MEAN_MOTION_DOT,MEAN_MOTION_DDOT,TLE_LINE0,TLE_LINE1,TLE_LINE2,SEMIMAJOR_AXIS,PERIOD,APOGEE,PERIGEE,DECAYED
53292.0,STARLINK-4159,PAYLOAD,2024-05-29 12:19:44,15.08835211,0.0001225,53.2161,218.5675,78.1463,281.9667,-6.395e-05,-1.305e-05,0.0,0 STARLINK-4159,1 53292U 22086BC  24150.51370438 -.00001305  00000-0 -63950-4 0  9990,2 53292  53.2161 218.5675 0001225  78.1463 281.9667 15.08835211103023,6917.895,95.438,540.607,538.913,0.0
53292.0,STARLINK-4159,PAYLOAD,2024-05-29 13:55:07,15.08833516,0.0001318,53.2163,218.2703,72.4521,287.6615,-7.8017e-05,-1.529e-05,0.0,0 STARLINK-4159,1 53292U 22086BC  24150.57994616 -.00001529  00000-0 -78017-4 0  9994,2 53292  53.2163 218.2703 0001318  72.4521 287.6615 15.08833516103199,6917.9,95.438,540.677,538.853,0.0
53292.0,STARLINK-4159,PAYLOAD,2024-05-30 10:35:07,15.0883633,0.0001238,53.2163,214.4045,83.8813,276.232,-7.7028e-05,-1.513e-05,0.0,0 STARLINK-4159,1 53292U 22086BC  24151.44106472 -.00001513  00000-0 -77028-4 0  9990,2 53292  53.2163 214.4045 0001238  83.8813 276.2320 15.08836330103326,6917.892,95.438,540.613,538.9,0.0
53292.0,STARLINK-4159,PAYLOAD,2024-05-31 13:36:41,15.08828951,0.0001392,53.2162,209.3493,85.535,274.5801,0.00014333,1.993e-05,0.0,0 STARLINK-4159,1 53292U 22086BC  24152.56714350  .00001993  00000-0  14333-3 0  9993,2 53292  53.2162 209.3493 0001392  85.5350 274.5801 15.08828951103494,6917.914,95.438,540.742,538.816,0.0
53292.0,STARLINK-4159,PAYLOAD,2024-06-01 10:16:42,15.0882649,0.0001519,53.2169,205.4828,93.3598,266.7568,8.6484e-05,1.088e-05,0.0,0 STARLINK-4159,1 53292U 22086BC  24153.42827381  .00001088  00000-0  86484-4 0  9990,2 53292  53.2169 205.4828 0001519  93.3598 266.7568 15.08826490103468,6917.922,95.438,540.838,538.736,0.0
53292.0,STARLINK-4159,PAYLOAD,2024-06-02 10:07:29,15.08835341,0.0001375,53.2163,201.0228,91.0952,269.0198,0.00013684,1.89e-05,0.0,0 STARLINK-4159,1 53292U 22086BC  24154.42187358  .00001890  00000-0  13684-3 0  9996,2 53292  53.2163 201.0228 0001375  91.0952 269.0198 15.08835341103614,6917.895,95.438,540.711,538.808,0.0
53292.0,STARLINK-4159,PAYLOAD,2024-06-02 19:39:48,15.0884204,0.0001282,53.2157,199.2383,88.3445,271.7694,0.00012733,1.739e-05,0.0,0 STARLINK-4159,1 53292U 22086BC  24154.81931032  .00001739  00000-0  12733-3 0  9991,2 53292  53.2157 199.2383 0001282  88.3445 271.7694 15.08842040103839,6917.874,95.437,540.626,538.852,0.0
53292.0,STARLINK-4159,PAYLOAD,2024-06-03 09:58:17,15.08838097,0.0001416,53.2171,196.5645,94.3613,265.7541,0.0001537,2.159e-05,0.0,0 STARLINK-4159,1 53292U 22086BC  24155.41547600  .00002159  00000-0  15370-3 0  9999,2 53292  53.2171 196.5645 0001416  94.3613 265.7541 15.08838097103920,6917.886,95.438,540.731,538.772,0.0
53292.0,STARLINK-4159,PAYLOAD,2024-06-03 19:30:35,15.08845907,0.0001435,53.2172,194.7803,94.3032,265.8124,0.00017208,2.452e-05,0.0,0 STARLINK-4159,1 53292U 22086BC  24155.81291106  .00002452  00000-0  17208-3 0  9998,2 53292  53.2172 194.7803 0001435  94.3032 265.8124 15.08845907103828,6917.862,95.437,540.72,538.735,0.0
53292.0,STARLINK-4159,PAYLOAD,2024-06-04 11:24:28,15.08830061,9.63e-05,53.215,191.8023,92.4446,267.6656,-1.2261e-05,-4.83e-06,0.0,0 STARLINK-4159,1 53292U 22086BC  24156.47532601 -.00000483  00000-0 -12261-4 0  9998,2 53292  53.2150 191.8023 0000963  92.4446 267.6656 15.08830061103925,6917.911,95.438,540.442,539.11,0.0
53292.0,STARLINK-4159,PAYLOAD,2024-06-04 19:21:24,15.08825632,9.41e-05,53.2151,190.3155,81.3691,278.7408,-0.00010347,-1.933e-05,0.0,0 STARLINK-4159,1 53292U 22086BC  24156.80653323 -.00001933  00000-0 -10347-3 0  9993,2 53292  53.2151 190.3155 0000941  81.3691 278.7408 15.08825632104131,6917.924,95.438,540.44,539.138,0.0
53292.0,STARLINK-4159,PAYLOAD,2024-06-05 11:15:15,15.08828955,0.0001262,53.2143,187.343,80.3489,279.7645,4.0457e-06,-2.23e-06,0.0,0 STARLINK-4159,1 53292U 22086BC  24157.46893199 -.00000223  00000-0  40457-5 0  9990,2 53292  53.2143 187.3430 0001262  80.3489 279.7645 15.08828955104073,6917.914,95.438,540.652,538.906,0.0
53292.0,STARLINK-4159,PAYLOAD,2024-06-05 19:12:11,15.08834561,0.0001233,53.2141,185.8564,81.6155,278.4977,8.7179e-05,1.1e-05,0.0,0 STARLINK-4159,1 53292U 22086BC  24157.80013221  .00001100  00000-0  87179-4 0  9993,2 53292  53.2141 185.8564 0001233  81.6155 278.4977 15.08834561104281,6917.897,95.438,540.615,538.909,0.0
53292.0,STARLINK-4159,PAYLOAD,2024-06-06 09:30:39,15.08846675,0.0001296,53.2136,183.1806,82.1906,277.9233,0.00072265,0.00011234,0.0,0 STARLINK-4159,1 53292U 22086BC  24158.39629612  .00011234  00000-0  72265-3 0  9993,2 53292  53.2136 183.1806 0001296  82.1906 277.9233 15.08846675104215,6917.86,95.437,540.622,538.828,0.0
53292.0,STARLINK-4159,PAYLOAD,2024-06-06 19:02:58,15.08855604,0.000131,53.2134,181.3964,81.6054,278.5087,0.00069678,0.00010823,0.0,0 STARLINK-4159,1 53292U 22086BC  24158.79373292  .00010823  00000-0  69678-3 0  9994,2 53292  53.2134 181.3964 0001310  81.6054 278.5087 15.08855604104433,6917.833,95.437,540.604,538.791,0.0
53292.0,STARLINK-4159,PAYLOAD,2024-06-07 18:53:44,15.088692,0.0001365,53.2133,176.9357,79.6929,280.4217,0.00053779,8.288e-05,0.0,0 STARLINK-4159,1 53292U 22086BC  24159.78731861  .00008288  00000-0  53779-3 0  9991,2 53292  53.2133 176.9357 0001365  79.6929 280.4217 15.08869200104429,6917.791,95.436,540.6,538.712,0.0
53292.0,STARLINK-4159,PAYLOAD,2024-06-08 04:26:02,15.08857449,0.000166,53.2159,175.1497,100.6,259.5179,0.00020042,2.905e-05,0.0,0 STARLINK-4159,1 53292U 22086BC  24160.18475621  .00002905  00000-0  20042-3 0  9993,2 53292  53.2159 175.1497 0001660 100.6000 259.5179 15.08857449104488,6917.827,95.436,540.84,538.544,0.0
53292.0,STARLINK-4159,PAYLOAD,2024-06-08 12:22:58,15.08852219,0.0001469,53.2153,173.6652,86.9148,273.2012,6.5076e-05,7.48e-06,0.0,0 STARLINK-4159,1 53292U 22086BC  24160.51595741  .00000748  00000-0  65076-4 0  9996,2 53292  53.2153 173.6652 0001469  86.9148 273.2012 15.08852219104696,6917.843,95.437,540.724,538.692,0.0
53292.0,STARLINK-4159,PAYLOAD,2024-06-09 04:16:50,15.08841852,0.0001524,53.2155,170.6902,89.6827,270.434,-0.00013118,-2.375e-05,0.0,0 STARLINK-4159,1 53292U 22086BC  24161.17835934 -.00002375  00000-0 -13118-3 0  9999,2 53292  53.2155 170.6902 0001524  89.6827 270.4340 15.08841852104637,6917.875,95.437,540.794,538.685,0.0
53292.0,STARLINK-4159,PAYLOAD,2024-06-09 07:27:37,15.08839615,0.0001546,53.2173,170.097,90.7066,269.4103,-0.00011242,-2.077e-05,0.0,0 STARLINK-4159,1 53292U 22086BC  24161.31084622 -.00002077  00000-0 -11242-3 0  9990,2 53292  53.2173 170.0970 0001546  90.7066 269.4103 15.08839615104659,6917.882,95.438,540.816,538.677,0.0
53292.0,STARLINK-4159,PAYLOAD,2024-06-09 16:59:55,15.08840433,0.0001442,53.2167,168.3124,87.4168,272.6989,-0.00010233,-1.916e-05,0.0,0 STARLINK-4159,1 53292U 22086BC  24161.70828467 -.00001916  00000-0 -10233-3 0  9996,2 53292  53.2167 168.3124 0001442  87.4168 272.6989 15.08840433104876,6917.879,95.438,540.742,538.747,0.0
53292.0,STARLINK-4159,PAYLOAD,2024-06-10 07:18:23,15.08838873,0.0001407,53.2165,165.6361,86.8604,273.2549,2.528e-05,1.14e-06,0.0,0 STARLINK-4159,1 53292U 22086BC  24162.30444202  .00000114  00000-0  25280-4 0  9990,2 53292  53.2165 165.6361 0001407  86.8604 273.2549 15.08838873104960,6917.884,95.438,540.722,538.775,0.0
53292.0,STARLINK-4159,PAYLOAD,2024-06-10 16:50:42,15.08840218,0.0001395,53.2166,163.8514,84.5016,275.6135,2.9363e-05,1.79e-06,0.0,0 STARLINK-4159,1 53292U 22086BC  24162.70188124  .00000179  00000-0  29363-4 0  9999,2 53292  53.2166 163.8514 0001395  84.5016 275.6135 15.08840218104861,6917.88,95.438,540.71,538.78,0.0
53292.0,STARLINK-4159,PAYLOAD,2024-06-11 07:09:10,15.08836174,0.0001332,53.2158,161.1761,91.5818,268.5327,0.00012721,1.737e-05,0.0,0 STARLINK-4159,1 53292U 22086BC  24163.29804253  .00001737  00000-0  12721-3 0  9992,2 53292  53.2158 161.1761 0001332  91.5818 268.5327 15.08836174105115,6917.892,95.438,540.679,538.836,0.0
53292.0,STARLINK-4159,PAYLOAD,2024-06-12 05:24:35,15.08834013,0.0001488,53.2172,157.0141,91.7779,268.3383,2.0081e-05,3.2e-07,0.0,0 STARLINK-4159,1 53292U 22086BC  24164.22540938  .00000032  00000-0  20081-4 0  9999,2 53292  53.2172 157.0141 0001488  91.7779 268.3383 15.08834013105094,6917.899,95.438,540.793,538.734,0.0
53292.0,STARLINK-4159,PAYLOAD,2024-06-12 08:35:21,15.08834797,0.0001473,53.2171,156.4192,90.5656,269.5505,2.1458e-05,5.4e-07,0.0,0 STARLINK-4159,1 53292U 22086BC  24164.35788912  .00000054  00000-0  21458-4 0  9992,2 53292  53.2171 156.4192 0001473  90.5656 269.5505 15.08834797105275,6917.896,95.438,540.78,538.742,0.0
53292.0,STARLINK-4159,PAYLOAD,2024-06-13 05:15:21,15.08844107,0.000149,53.2171,152.5535,86.3843,273.732,4.8011e-05,4.76e-06,0.0,0 STARLINK-4159,1 53292U 22086BC  24165.21900272  .00000476  00000-0  48011-4 0  9995,2 53292  53.2171 152.5535 0001490  86.3843 273.7320 15.08844107105248,6917.868,95.437,540.764,538.702,0.0
53292.0,STARLINK-4159,PAYLOAD,2024-06-13 06:50:44,15.08844232,0.0001466,53.2169,152.2557,84.653,275.4629,4.5416e-05,4.35e-06,0.0,0 STARLINK-4159,1 53292U 22086BC  24165.28524252  .00000435  00000-0  45416-4 0  9993,2 53292  53.2169 152.2557 0001466  84.6530 275.4629 15.08844232105412,6917.867,95.437,540.747,538.718,0.0
53292.0,STARLINK-4159,PAYLOAD,2024-06-13 22:44:36,15.08839458,0.0001406,53.216,149.2824,85.3238,274.7915,9.0221e-05,1.148e-05,0.0,0 STARLINK-4159,1 53292U 22086BC  24165.94764193  .00001148  00000-0  90221-4 0  9992,2 53292  53.2160 149.2824 0001406  85.3238 274.7915 15.08839458105518,6917.882,95.438,540.72,538.774,0.0
53292.0,STARLINK-4159,PAYLOAD,2024-06-14 05:06:09,15.08836584,0.0001374,53.216,148.0922,88.9137,271.2013,6.5823e-05,7.6e-06,0.0,0 STARLINK-4159,1 53292U 22086BC  24166.21260508  .00000760  00000-0  65823-4 0  9993,2 53292  53.2160 148.0922 0001374  88.9137 271.2013 15.08836584105557,6917.891,95.438,540.706,538.805,0.0
